NORAD_CAT_ID,OBJECT_NAME,OBJECT_TYPE,EPOCH,MEAN_MOTION,ECCENTRICITY,INCLINATION,RA_OF_ASC_NODE,ARG_OF_PERICENTER,MEAN_ANOMALY,BSTAR,MEAN_MOTION_DOT,MEAN_MOTION_DDOT,TLE_LINE0,TLE_LINE1,TLE_LINE2,SEMIMAJOR_AXIS,PERIOD,APOGEE,PERIGEE,DECAYED
49415.0,STARLINK-3159,PAYLOAD,2023-09-29 10:50:27,15.08858018,0.0001638,53.2164,264.5341,94.3491,265.7689,0.00013727,1.898e-05,0.0,0 STARLINK-3159,1 49415U 21104H   23272.45171117  .00001898  00000-0  13727-3 0  9993,2 49415  53.2164 264.5341 0001638  94.3491 265.7689 15.08858018105158,6917.825,95.436,540.823,538.557,0.0
49415.0,STARLINK-3159,PAYLOAD,2023-09-30 04:19:43,15.08845796,0.0001427,53.2167,261.2675,74.9654,285.1496,8.055e-05,9.94e-06,0.0,0 STARLINK-3159,1 49415U 21104H   23273.18036128  .00000994  00000-0  80550-4 0  9991,2 49415  53.2167 261.2675 0001427  74.9654 285.1496 15.08845796105269,6917.863,95.437,540.715,538.74,0.0
49415.0,STARLINK-3159,PAYLOAD,2023-10-01 04:10:30,15.08844793,0.0001483,53.2164,256.8001,116.4611,243.6533,-2.7029e-05,-7.18e-06,0.0,0 STARLINK-3159,1 49415U 21104H   23274.17396088 -.00000718  00000-0 -27029-4 0  9993,2 49415  53.2164 256.8001 0001483 116.4611 243.6533 15.08844793105410,6917.866,95.437,540.757,538.705,0.0
49415.0,STARLINK-3159,PAYLOAD,2023-10-01 05:45:53,15.08843269,0.0001353,53.216,256.506,98.7255,261.389,7.4344e-06,-1.7e-06,0.0,0 STARLINK-3159,1 49415U 21104H   23274.24020151 -.00000170  00000-0  74344-5 0  9990,2 49415  53.2160 256.5060 0001353  98.7255 261.3890 15.08843269104330,6917.87,95.437,540.671,538.799,0.0
49415.0,STARLINK-3159,PAYLOAD,2023-10-02 02:25:54,15.08835402,0.0001478,53.2171,252.6432,117.7646,242.3496,-6.6661e-05,-1.349e-05,0.0,0 STARLINK-3159,1 49415U 21104H   23275.10133021 -.00001349  00000-0 -66661-4 0  9999,2 49415  53.2171 252.6432 0001478 117.7646 242.3496 15.08835402105552,6917.894,95.438,540.782,538.737,0.0
49415.0,STARLINK-3159,PAYLOAD,2023-10-02 15:08:59,15.08842554,0.000133,53.2163,250.2612,109.8593,250.2542,-2.6063e-05,-7.03e-06,0.0,0 STARLINK-3159,1 49415U 21104H   23275.63124472 -.00000703  00000-0 -26063-4 0  9992,2 49415  53.2163 250.2612 0001330 109.8593 250.2542 15.08842554105632,6917.873,95.437,540.658,538.818,0.0
49415.0,STARLINK-3159,PAYLOAD,2023-10-03 07:02:50,15.08843974,0.0001346,53.2163,247.2872,112.3159,247.7975,0.0001233,1.675e-05,0.0,0 STARLINK-3159,1 49415U 21104H   23276.29364331  .00001675  00000-0  12330-3 0  9993,2 49415  53.2163 247.2872 0001346 112.3159 247.7975 15.08843974104648,6917.868,95.437,540.664,538.802,0.0
49415.0,STARLINK-3159,PAYLOAD,2023-10-04 08:29:01,15.0883797,0.0001259,53.2167,242.5284,94.0502,266.0634,0.00012325,1.674e-05,0.0,0 STARLINK-3159,1 49415U 21104H   23277.35349149  .00001674  00000-0  12325-3 0  9994,2 49415  53.2167 242.5284 0001259  94.0502 266.0634 15.08837970105891,6917.887,95.438,540.623,538.881,0.0
49415.0,STARLINK-3159,PAYLOAD,2023-10-04 14:50:34,15.08838137,0.0001237,53.2163,241.3388,97.5946,262.5186,5.3838e-05,5.69e-06,0.0,0 STARLINK-3159,1 49415U 21104H   23277.61845288  .00000569  00000-0  53838-4 0  9995,2 49415  53.2163 241.3388 0001237  97.5946 262.5186 15.08838137104848,6917.886,95.438,540.607,538.895,0.0
49415.0,STARLINK-3159,PAYLOAD,2023-10-05 06:44:24,15.08859007,0.0001334,53.2168,238.3639,100.8014,259.3128,0.00020971,3.053e-05,0.0,0 STARLINK-3159,1 49415U 21104H   23278.28083461  .00003053  00000-0  20971-3 0  9998,2 49415  53.2168 238.3639 0001334 100.8014 259.3128 15.08859007106032,6917.822,95.436,540.61,538.764,0.0
49415.0,STARLINK-3159,PAYLOAD,2023-10-05 14:41:20,15.08848554,0.0001517,53.2172,236.8776,89.176,270.9406,1.1862e-05,-9.9e-07,0.0,0 STARLINK-3159,1 49415U 21104H   23278.61204388 -.00000099  00000-0  11862-4 0  9996,2 49415  53.2172 236.8776 0001517  89.1760 270.9406 15.08848554106080,6917.854,95.437,540.769,538.67,0.0
49415.0,STARLINK-3159,PAYLOAD,2023-10-06 01:49:02,15.08842169,0.0001402,53.2177,234.7951,93.2797,266.8356,9.9279e-05,1.293e-05,0.0,0 STARLINK-3159,1 49415U 21104H   23279.07572687  .00001293  00000-0  99279-4 0  9991,2 49415  53.2177 234.7951 0001402  93.2797 266.8356 15.08842169106158,6917.874,95.437,540.709,538.769,0.0
49415.0,STARLINK-3159,PAYLOAD,2023-10-06 06:35:12,15.08844159,0.000148,53.2181,233.9035,91.8657,268.2505,0.00012353,1.679e-05,0.0,0 STARLINK-3159,1 49415U 21104H   23279.27444573  .00001679  00000-0  12353-3 0  9990,2 49415  53.2181 233.9035 0001480  91.8657 268.2505 15.08844159105097,6917.868,95.437,540.757,538.709,0.0
49415.0,STARLINK-3159,PAYLOAD,2023-10-06 14:32:08,15.08832943,0.0001458,53.2165,232.4164,104.8024,255.3129,3.1741e-05,2.17e-06,0.0,0 STARLINK-3159,1 49415U 21104H   23279.60565504  .00000217  00000-0  31741-4 0  9995,2 49415  53.2165 232.4164 0001458 104.8024 255.3129 15.08832943106238,6917.902,95.438,540.776,538.758,0.0
49415.0,STARLINK-3159,PAYLOAD,2023-10-07 06:26:00,15.08839886,0.000169,53.2163,229.4419,114.5815,245.5354,-0.00011508,-2.119e-05,0.0,0 STARLINK-3159,1 49415U 21104H   23280.26805654 -.00002119  00000-0 -11508-3 0  9995,2 49415  53.2163 229.4419 0001690 114.5815 245.5354 15.08839886105243,6917.881,95.438,540.915,538.577,0.0
49415.0,STARLINK-3159,PAYLOAD,2023-10-07 14:22:55,15.08841604,0.000172,53.2167,227.9554,111.9505,248.167,-9.8921e-05,-1.862e-05,0.0,0 STARLINK-3159,1 49415U 21104H   23280.59925538 -.00001862  00000-0 -98921-4 0  9994,2 49415  53.2167 227.9554 0001720 111.9505 248.1670 15.08841604105297,6917.875,95.437,540.93,538.551,0.0
49415.0,STARLINK-3159,PAYLOAD,2023-10-08 03:06:00,15.08853064,0.0001386,53.2155,225.5776,103.4347,256.68,0.00023015,3.378e-05,0.0,0 STARLINK-3159,1 49415U 21104H   23281.12916885  .00003378  00000-0  23015-3 0  9992,2 49415  53.2155 225.5776 0001386 103.4347 256.6800 15.08853064106464,6917.84,95.437,540.664,538.747,0.0
49415.0,STARLINK-3159,PAYLOAD,2023-10-08 06:16:46,15.08854532,0.0001418,53.2157,224.9835,100.482,259.6332,0.00024852,3.671e-05,0.0,0 STARLINK-3159,1 49415U 21104H   23281.26164779  .00003671  00000-0  24852-3 0  9990,2 49415  53.2157 224.9835 0001418 100.4820 259.6332 15.08854532105399,6917.836,95.437,540.682,538.72,0.0
49415.0,STARLINK-3159,PAYLOAD,2023-10-08 20:35:15,15.0884266,0.0001412,53.2156,222.3069,104.9811,255.1337,0.00031176,4.678e-05,0.0,0 STARLINK-3159,1 49415U 21104H   23281.85781377  .00004678  00000-0  31176-3 0  9999,2 49415  53.2156 222.3069 0001412 104.9811 255.1337 15.08842660105487,6917.872,95.437,540.714,538.76,0.0
49415.0,STARLINK-3159,PAYLOAD,2023-10-09 02:56:46,15.08859092,0.000132,53.2157,221.1195,96.7609,263.3533,0.00031975,4.807e-05,0.0,0 STARLINK-3159,1 49415U 21104H   23282.12276528  .00004807  00000-0  31975-3 0  9998,2 49415  53.2157 221.1195 0001320  96.7609 263.3533 15.08859092106618,6917.822,95.436,540.6,538.774,0.0
49415.0,STARLINK-3159,PAYLOAD,2023-10-09 12:29:06,15.08841355,0.0001486,53.2162,219.3331,94.2084,265.9078,-3.0637e-06,-3.37e-06,0.0,0 STARLINK-3159,1 49415U 21104H   23282.52021159 -.00000337  00000-0 -30637-5 0  9992,2 49415  53.2162 219.3331 0001486  94.2084 265.9078 15.08841355105588,6917.876,95.437,540.769,538.713,0.0
49415.0,STARLINK-3159,PAYLOAD,2023-10-09 20:26:02,15.0884095,0.0001745,53.2161,217.8467,88.374,271.7452,4.2676e-06,-2.2e-06,0.0,0 STARLINK-3159,1 49415U 21104H   23282.85141275 -.00000220  00000-0  42676-5 0  9996,2 49415  53.2161 217.8467 0001745  88.3740 271.7452 15.08840950105638,6917.877,95.437,540.95,538.535,0.0
49415.0,STARLINK-3159,PAYLOAD,2023-10-10 05:58:20,15.08853588,0.0001429,53.2162,216.0627,112.5449,247.5694,0.00015489,2.179e-05,0.0,0 STARLINK-3159,1 49415U 21104H   23283.24884464  .00002179  00000-0  15489-3 0  9998,2 49415  53.2162 216.0627 0001429 112.5449 247.5694 15.08853588106780,6917.839,95.437,540.692,538.715,0.0
49415.0,STARLINK-3159,PAYLOAD,2023-10-10 12:19:53,15.08837873,0.000222,53.2161,214.8731,87.4216,272.7031,-3.8192e-05,-8.96e-06,0.0,0 STARLINK-3159,1 49415U 21104H   23283.51381567 -.00000896  00000-0 -38192-4 0  9997,2 49415  53.2161 214.8731 0002220  87.4216 272.7031 15.08837873105731,6917.887,95.438,541.288,538.216,0.0
49415.0,STARLINK-3159,PAYLOAD,2023-10-10 18:41:26,15.0883648,0.0002439,53.2157,213.6843,87.4938,272.6334,1.3367e-05,-7.6e-07,0.0,0 STARLINK-3159,1 49415U 21104H   23283.77877825 -.00000076  00000-0  13367-4 0  9998,2 49415  53.2157 213.6843 0002439  87.4938 272.6334 15.08836480106863,6917.891,95.438,541.443,538.069,0.0
49415.0,STARLINK-3159,PAYLOAD,2023-10-10 20:16:49,15.08821157,0.0001434,53.2164,213.3883,105.4883,254.6267,-0.00035384,-5.912e-05,0.0,0 STARLINK-3159,1 49415U 21104H   23283.84502091 -.00005912  00000-0 -35384-3 0  9993,2 49415  53.2164 213.3883 0001434 105.4883 254.6267 15.08821157105786,6917.938,95.439,540.795,538.811,0.0
49415.0,STARLINK-3159,PAYLOAD,2023-10-11 01:02:59,15.08827217,0.0001582,53.2168,212.4972,113.7685,246.3473,-0.00018708,-3.263e-05,0.0,0 STARLINK-3159,1 49415U 21104H   23284.04374035 -.00003263  00000-0 -18708-3 0  9999,2 49415  53.2168 212.4972 0001582 113.7685 246.3473 15.08827217106900,6917.919,95.438,540.879,538.69,0.0
49415.0,STARLINK-3159,PAYLOAD,2023-10-11 12:10:41,15.08833931,0.000118,53.2158,210.4116,98.3475,261.7651,0.00024542,3.62e-05,0.0,0 STARLINK-3159,1 49415U 21104H   23284.50742204  .00003620  00000-0  24542-3 0  9995,2 49415  53.2158 210.4116 0001180  98.3475 261.7651 15.08833931105881,6917.899,95.438,540.58,538.948,0.0
49415.0,STARLINK-3159,PAYLOAD,2023-10-12 04:04:32,15.08844261,0.0001441,53.2165,207.4394,102.7082,257.4072,0.00048242,7.399e-05,0.0,0 STARLINK-3159,1 49415U 21104H   23285.16982415  .00007399  00000-0  48242-3 0  9998,2 49415  53.2165 207.4394 0001441 102.7082 257.4072 15.08844261107077,6917.867,95.437,540.729,538.736,0.0
49415.0,STARLINK-3159,PAYLOAD,2023-10-12 12:01:28,15.08847113,0.0001412,53.2166,205.9529,93.5152,266.6002,0.00052329,8.052e-05,0.0,0 STARLINK-3159,1 49415U 21104H   23285.50102425  .00008052  00000-0  52329-3 0  9999,2 49415  53.2166 205.9529 0001412  93.5152 266.6002 15.08847113106033,6917.859,95.437,540.7,538.747,0.0
